SL-3 R/B                
1 19046U 88032B   17054.22532307  .00000773  00000-0  62475-4 0  9997
2 19046  97.5430 104.3428 0038998 356.1695   3.9225 15.02127715555539
SL-16 R/B               
1 19120U 88039B   17053.83575396 -.00000110  00000-0 -29289-4 0  9991
2 19120  71.0139 206.5389 0021846 357.4948   2.6064 14.19165882489891
COSMOS 1953             
1 19210U 88050A   17053.75288735  .00000271  00000-0  16969-4 0  9990
2 19210  82.5195 144.3325 0011766 291.8918  68.1057 15.05147790560621
SL-8 R/B                
1 19257U 88053B   17054.50615939 -.00000036  00000-0 -32703-5 0  9994
2 19257  74.0463  65.5302 0020780 340.8455 181.7421 14.37344674502438
COSMOS 1975             
1 19573U 88093A   17054.17857411  .00000757  00000-0  52609-4 0  9999
2 19573  82.5183  95.7839 0013687 333.5637  26.4890 15.04046023542678
SL-14 R/B               
1 19574U 88093B   17053.93278052  .00000122  00000-0  11960-4 0  9992
2 19574  82.5294 251.8778 0022820 130.7488 346.0637 14.83203344511425
SL-16 R/B               
1 19650U 88102B   17053.90147976 -.00000196  00000-0 -75267-4 0  9998
2 19650  70.9972 255.4076 0014565 347.6752  12.4013 14.15750358459548
INTERCOSMOS 24          
1 20261U 89080A   17054.17512864  .00000129  00000-0  34049-4 0  9993
2 20261  82.5892  83.8314 1204284 359.7553   0.2811 12.55857320251651
SL-14 R/B               
1 20262U 89080C   17053.70136042  .00000084  00000-0  17649-4 0  9999
2 20262  82.5941 129.4257 1237996 157.5464 208.5041 12.48848799247858
DELTA 1 R/B             
1 20323U 89089B   17053.90952074  .00000087  00000-0  31492-4 0  9994
2 20323  97.0948  17.8818 0073423  80.1201 280.8274 14.48177685417658
DELTA 2 R/B(1)          
1 20453U 90008B   17054.47236345  .00001687  00000-0  98405-4 0  9994
2 20453  35.6260 178.2242 0291422 302.5932  54.6958 14.82858463431316
COSMOS 2058             
1 20465U 90010A   17054.42301457  .00000504  00000-0  40998-4 0  9993
2 20465  82.4922 357.2314 0014714 323.1176  36.9033 14.97433835468314
SL-14 R/B               
1 20466U 90010B   17054.21283973  .00000086  00000-0  79884-5 0  9995
2 20466  82.5034 119.2580 0020371 357.3438   2.7663 14.81266435460626
SL-14 R/B               
1 20511U 90018B   17054.53015132  .00000086  00000-0  82659-5 0  9993
2 20511  82.5205  59.9520 0018809 123.1041 353.3432 14.79925488455252
HST                     
1 20580U 90037B   17054.17719194  .00000678  00000-0  30977-4 0  9991
2 20580  28.4707  40.8281 0002811  32.4513  72.7644 15.08678290273040
SL-16 R/B               
1 20625U 90046B   17054.22063447 -.00000168  00000-0 -62384-4 0  9993
2 20625  71.0007  28.3280 0016874 279.1875  80.7338 14.14615257381715
COSMOS 2084             
1 20663U 90055A   17054.52257841  .00000328  00000-0  45136-4 0  9993
2 20663  62.7907 247.4751 0139306  78.8746 282.7974 14.91485463442859
SL-6 R/B(2)             
1 20666U 90055D   17054.54422927  .00000221  00000-0  36225-4 0  9998
2 20666  62.7840 166.4941 0135603  97.9664 263.6843 14.91840172444224
SL-8 R/B                
1 20775U 90078B   17053.92884192  .00002221  00000-0  11135-3 0  9995
2 20775  82.9318 141.8190 0590307 334.1876  23.0901 14.30078387332446
SL-8 R/B                
1 21088U 91006B   17054.20075904  .00000096  00000-0  81699-4 0  9991
2 21088  82.9408 104.9855 0021053 279.8374 137.2954 13.77038662309911
OKEAN-3                 
1 21397U 91039A   17054.54925597  .00000393  00000-0  35806-4 0  9998
2 21397  82.5193 246.3400 0016545 256.3275 103.6103 14.92415733392830
COSMOS 2151             
1 21422U 91042A   17053.90409519  .00000228  00000-0  20040-4 0  9992
2 21422  82.5031 355.1959 0013318 321.6659  38.3613 14.91777493370384
SL-14 R/B               
1 21423U 91042B   17053.57468476  .00000130  00000-0  14282-4 0  9996
2 21423  82.4912  68.5220 0016083 265.6167  94.3208 14.79678437385631
ERS-1                   
1 21574U 91050A   17053.83977620  .00000092  00000-0  44908-4 0  9992
2 21574  98.4472   2.8931 0032063 297.7951  61.9987 14.37561667341152
ARIANE 40 R/B           
1 21610U 91050F   17054.27824741  .00000011  00000-0  17508-4 0  9994
2 21610  98.6211 110.0528 0002066 287.3230 109.0313 14.40782374343710
INTERCOSMOS 25          
1 21819U 91086A   17053.90297077 -.00000002  00000-0 -17302-5 0  9994
2 21819  82.5487 131.7882 1525790 330.1648  22.0257 12.04399248 98503
SL-14 R/B               
1 21820U 91086B   17054.49157803  .00000387  00000-0  71386-4 0  9998
2 21820  82.5632 185.5291 1577618 152.4413 217.0165 11.93275054 93222
SL-8 R/B                
1 21876U 92008B   17053.92940035  .00000002  00000-0 -13541-4 0  9992
2 21876  82.9271 202.1159 0034512 355.2552 115.5693 13.75593326255441
SL-8 R/B                
1 21938U 92020B   17054.50915490 -.00000052  00000-0 -70143-4 0  9994
2 21938  82.9267  84.8672 0029989 147.0865  21.6493 13.75257929247662
SL-16 R/B               
1 22220U 92076B   17054.13907931 -.00000104  00000-0 -28477-4 0  9991
2 22220  71.0005 299.3161 0010493  86.0298  22.6745 14.16412450254627
SL-16 R/B               
1 22285U 92093B   17053.57248994  .00000259  00000-0  15829-3 0  9990
2 22285  71.0205  92.7151 0006169 290.2022  69.8437 14.15004996246042
COSMOS 2228             
1 22286U 92094A   17054.30824933  .00000321  00000-0  32369-4 0  9996
2 22286  82.5216 121.4762 0021790 136.7197 223.5737 14.87612252305568
SL-16 R/B               
1 22566U 93016B   17053.89265399 -.00000010  00000-0  19318-4 0  9995
2 22566  71.0077 306.8381 0012100 300.4993  59.4934 14.14940119235105
COSMOS 2242             
1 22626U 93024A   17053.72176321  .00000308  00000-0  30969-4 0  9993
2 22626  82.5244 149.7315 0020248 137.8061 222.4720 14.87611106289134
SL-16 R/B               
1 22803U 93059B   17053.63498528 -.00000252  00000-0 -10194-3 0  9991
2 22803  70.9904 130.8252 0018284 207.2694 152.7471 14.16764285212051
ARIANE 40 R/B           
1 22830U 93061H   17053.92524287 -.00000058  00000-0 -44196-5 0  9993
2 22830  98.8890  66.6887 0009881 261.0535 159.3427 14.31410974221648
COSMOS 2278             
1 23087U 94023A   17053.93289660 -.00000298  00000-0 -13259-3 0  9991
2 23087  71.0513 237.7730 0007987  12.2544 347.8771 14.13738043178105
SL-16 R/B               
1 23088U 94023B   17053.72334756 -.00000332  00000-0 -14765-3 0  9998
2 23088  71.0006 162.2990 0005874 272.6016  87.4434 14.14651526179354
SL-16 R/B               
1 23343U 94074B   17053.96330803 -.00000004  00000-0  70371-5 0  9995
2 23343  98.1679  89.8220 0008235  81.6121 340.1512 14.76688681199766
SL-16 R/B               
1 23405U 94077B   17053.77153985 -.00000061  00000-0 -65775-5 0  9996
2 23405  70.9829  95.9572 0001950 200.2289 159.8757 14.15195848149075
ERS-2                   
1 23560U 95021A   17054.51234504  .00002303  00000-0  11018-3 0  9996
2 23560  98.5456  31.6683 0003394 353.6060   6.5128 15.20249080158113
ARIANE 40+ R/B          
1 23561U 95021B   17053.93153028  .00000056  00000-0  33990-4 0  9990
2 23561  98.7898  52.5054 0006065 231.9551 182.2174 14.37796463144613
SL-16 R/B               
1 23705U 95058B   17054.14901140 -.00000163  00000-0 -59500-4 0  9996
2 23705  71.0199 268.2938 0010500 117.0821 243.1374 14.15093721101054
SL-16 R/B               
1 24298U 96051B   17053.92311077  .00000082  00000-0  70696-4 0  9994
2 24298  70.8490 302.8954 0015240 339.9718  20.0802 14.12480619 55422
ORBVIEW 2 (SEASTAR)     
1 24883U 97037A   17054.40520727  .00000058  00000-0  36947-4 0  9991
2 24883  98.5319 164.6354 0003481  88.9510 271.2073 14.33371724 35609
SL-16 R/B               
1 25400U 98043G   17053.86615477 -.00000001  00000-0  17619-4 0  9995
2 25400  98.4750   5.8220 0008685 270.7231  89.2954 14.25403929968562
SL-16 R/B               
1 25407U 98045B   17054.11450853 -.00000216  00000-0 -85712-4 0  9996
2 25407  71.0092 281.1532 0007160   3.6274 356.4900 14.15757162960031
ISS (ZARYA)             
1 25544U 98067A   17054.55909344  .00002977  00000-0  51677-4 0  9991
2 25544  51.6410 244.7310 0006703 220.6438 244.9238 15.54421533 44082
SL-8 R/B                
1 25723U 99022C   17053.73568662  .00009247  00000-0  15511-3 0  9998
2 25723  48.4170  56.9379 0010380 207.9555 152.0833 15.52406489988426
CZ-4B R/B               
1 25732U 99025C   17053.91074212 -.00000001  00000-0  21699-4 0  9999
2 25732  98.9891  54.2833 0038262  57.4497 359.4077 14.17625804920348
OKEAN-O                 
1 25860U 99039A   17054.01699114  .00000085  00000-0  19768-4 0  9997
2 25860  98.1756  37.3994 0001704 104.0812 256.0586 14.76449368946982
SL-16 R/B               
1 25861U 99039B   17054.54459951  .00000069  00000-0  16784-4 0  9996
2 25861  98.0908  25.1837 0017078  87.7634  29.2006 14.78387374948981
TERRA                   
1 25994U 99068A   17054.21334036 -.00000036  00000-0  21017-5 0  9996
2 25994  98.2074 130.8321 0001228  82.0853 278.0505 14.57111094914079
SL-14 R/B               
1 26874U 01032B   17053.56634731  .00088709  19996-5  15754-3 0  9990
2 26874  82.4558   4.1090 0002992  46.6734 312.9294 16.01764466875402
ENVISAT                 
1 27386U 02009A   17054.54263179 -.00000025  00000-0  53691-5 0  9998
2 27386  98.2476 104.4740 0001135  82.6872 277.4446 14.37888550784740
IDEFIX & ARIANE 42P R/B 
1 27422U 02021B   17053.90811770 -.00000044  00000-0 -12650-5 0  9990
2 27422  98.2291  60.5086 0011608 211.0335 149.0163 14.29251508772249
AQUA                    
1 27424U 02022A   17053.90395288  .00000175  00000-0  49017-4 0  9993
2 27424  98.2269 356.8888 0002007  94.0683 341.7242 14.57103449787588
CZ-4B R/B               
1 27432U 02024C   17054.54128817 -.00000006  00000-0  20637-4 0  9998
2 27432  98.9738  27.5401 0050462 355.1674 111.8965 14.14036485762733
MIDORI II (ADEOS-II)    
1 27597U 02056A   17054.55432923  .00000075  00000-0  47749-4 0  9990
2 27597  98.3554  29.0270 0000758  32.5272 327.5956 14.27268667739215
